0 FENGYUN 1C DEB
1 31023U 99025BDR 13286.32267720  .00000255  00000-0  18056-3 0  4656
2 31023 099.0565 313.7724 0084858 070.2506 290.8838 14.04806070337613
0 FENGYUN 1C DEB
1 31023U 99025BDR 13287.31977982  .00000217  00000-0  15731-3 0  4660
2 31023 099.0572 314.7673 0085700 067.6197 293.3433 14.04805024337750
0 FENGYUN 1C DEB
1 31023U 99025BDR 13289.52771205  .00000194  00000-0  14395-3 0  4675
2 31023 099.0561 316.9702 0084993 059.9778 300.9643 14.04805195338069
0 FENGYUN 1C DEB
1 31023U 99025BDR 13292.02052502  .00000145  00000-0  11417-3 0  4685
2 31023 099.0574 319.4621 0085261 054.0227 306.8647 14.04804678338418
0 FENGYUN 1C DEB
1 31023U 99025BDR 13294.86945103  .00000083  00000-0  77210-4 0  4693
2 31023 099.0576 322.3044 0084519 046.4174 314.3968 14.04804077338810
